
# Worst residual: 138.34 km
# MJD 60520.000000 (2024 Jul 29  0:00)
A118n8v = A1188rT = A1188rU
1 79918U 24999ZZG 24211.49919926  .00000000  00000-0  00000-0 0 24320
2 79918 026.0711 335.0853 6973930 155.1947 039.5452 00.96049278    02

# Worst residual: 122.53 km
# MJD 60521.000000 (2024 Jul 30  0:00)
A118n8v = A1188rT = A1188rU
1 79918U 24999ZZG 24212.49919926  .00000000  00000-0  00000-0 0 24321
2 79918 026.0147 335.0991 6981621 155.8413 023.2862 00.96085634    00

# Worst residual: 117.53 km
# MJD 60522.000000 (2024 Jul 31  0:00)
A118n8v = A1188rT = A1188rU
1 79918U 24999ZZG 24213.49919926  .00000000  00000-0  00000-0 0 24322
2 79918 025.9634 335.1069 6990885 156.5075 006.9838 00.96092061    03

# Worst residual: 140.62 km
# MJD 60523.000000 (2024 Aug  1  0:00)
A118n8v = A1188rT = A1188rU
1 79918U 24999ZZG 24214.49919926  .00000000  00000-0  00000-0 0 24323
2 79918 025.9104 335.1157 7000311 157.1570 350.7134 00.96064431    06

# Worst residual: 161.04 km
# MJD 60524.000000 (2024 Aug  2  0:00)
A118n8v = A1188rT = A1188rU
1 79918U 24999ZZG 24215.49919926  .00000000  00000-0  00000-0 0 24324
2 79918 025.8566 335.1240 7009420 157.8069 334.4410 00.96014001    04

# Worst residual: 161.06 km
# MJD 60525.000000 (2024 Aug  3  0:00)
A118n8v = A1188rT = A1188rU
1 79918U 24999ZZG 24216.49919926  .00000000  00000-0  00000-0 0 24325
2 79918 025.7848 335.1577 7018806 158.4091 318.2240 00.95933549    06

# Worst residual: 164.51 km
# MJD 60526.000000 (2024 Aug  4  0:00)
A118n8v = A1188rT = A1188rU
1 79918U 24999ZZG 24217.49919926  .00000000  00000-0  00000-0 0 24326
2 79918 025.7463 335.1404 7025418 159.0580 302.0278 00.95871802    00

# Worst residual: 152.98 km
# MJD 60527.000000 (2024 Aug  5  0:00)
A118n8v = A1188rT = A1188rU
1 79918U 24999ZZG 24218.49919926  .00000000  00000-0  00000-0 0 24327
2 79918 025.6896 335.1482 7032258 159.6752 285.8594 00.95802749    05

# Worst residual: 176.14 km
# MJD 60528.000000 (2024 Aug  6  0:00)
A118n8v = A1188rT = A1188rU
1 79918U 24999ZZG 24219.49919926  .00000000  00000-0  00000-0 0 24328
2 79918 025.6331 335.1545 7035902 160.2851 269.7241 00.95728723    05

# Worst residual: 174.51 km
# MJD 60529.000000 (2024 Aug  7  0:00)
A118n8v = A1188rT = A1188rU
1 79918U 24999ZZG 24220.49919926  .00000000  00000-0  00000-0 0 24320
2 79918 025.5598 335.1484 7039548 160.9181 253.5740 00.95666730    08

# Worst residual: 122.60 km
# MJD 60530.000000 (2024 Aug  8  0:00)
A118n8v = A1188rT = A1188rU
1 79918U 24999ZZG 24221.49919926  .00000000  00000-0  00000-0 0 24321
2 79918 025.5149 335.1659 7040767 161.5334 237.4490 00.95614069    07

# Worst residual: 48.88 km
# MJD 60531.000000 (2024 Aug  9  0:00)
A118n8v = A1188rT = A1188rU
1 79918U 24999ZZG 24222.49919926  .00000000  00000-0  00000-0 0 24322
2 79918 025.4526 335.1715 7039015 162.1742 221.2993 00.95546417    02

# Worst residual: 44.55 km
# MJD 60532.000000 (2024 Aug 10  0:00)
A118n8v = A1188rT = A1188rU
1 79918U 24999ZZG 24223.49919926  .00000000  00000-0  00000-0 0 24323
2 79918 025.3850 335.1828 7042211 162.8298 205.1194 00.95522631    07

# Worst residual: 45.13 km
# MJD 60533.000000 (2024 Aug 11  0:00)
A118n8v = A1188rT = A1188rU
1 79918U 24999ZZG 24224.49919926  .00000000  00000-0  00000-0 0 24324
2 79918 025.3143 335.1811 7045453 163.4955 188.9678 00.95520443    06

# Worst residual: 43.71 km
# MJD 60534.000000 (2024 Aug 12  0:00)
A118n8v = A1188rT = A1188rU
1 79918U 24999ZZG 24225.49919926  .00000000  00000-0  00000-0 0 24325
2 79918 025.2389 335.1867 7050727 164.1546 172.8112 00.95546174    06

# Worst residual: 108.83 km
# MJD 60535.000000 (2024 Aug 13  0:00)
A118n8v = A1188rT = A1188rU
1 79918U 24999ZZG 24226.49919926  .00000000  00000-0  00000-0 0 24326
2 79918 025.1720 335.1852 7059779 164.8029 156.6807 00.95597750    04

# Worst residual: 162.33 km
# MJD 60536.000000 (2024 Aug 14  0:00)
A118n8v = A1188rT = A1188rU
1 79918U 24999ZZG 24227.49919926  .00000000  00000-0  00000-0 0 24327
2 79918 025.0996 335.1824 7066442 165.4304 140.5875 00.95646442    05

# Worst residual: 172.59 km
# MJD 60537.000000 (2024 Aug 15  0:00)
A118n8v = A1188rT = A1188rU
1 79918U 24999ZZG 24228.49919926  .00000000  00000-0  00000-0 0 24328
2 79918 025.0274 335.1778 7071785 166.0649 124.4631 00.95701757    09

# Worst residual: 157.72 km
# MJD 60538.000000 (2024 Aug 16  0:00)
A118n8v = A1188rT = A1188rU
1 79918U 24999ZZG 24229.49919926  .00000000  00000-0  00000-0 0 24329
2 79918 024.9512 335.1725 7077342 166.6840 108.3649 00.95771813    08

# Worst residual: 176.32 km
# MJD 60539.000000 (2024 Aug 17  0:00)
A118n8v = A1188rT = A1188rU
1 79918U 24999ZZG 24230.49919926  .00000000  00000-0  00000-0 0 24321
2 79918 024.8715 335.1682 7080141 167.3112 092.2323 00.95840812    01

# Worst residual: 179.37 km
# MJD 60540.000000 (2024 Aug 18  0:00)
A118n8v = A1188rT = A1188rU
1 79918U 24999ZZG 24231.49919926  .00000000  00000-0  00000-0 0 24322
2 79918 024.7735 335.1958 7083386 167.9212 076.0557 00.95920501    02

# Worst residual: 183.16 km
# MJD 60541.000000 (2024 Aug 19  0:00)
A118n8v = A1188rT = A1188rU
1 79918U 24999ZZG 24232.49919926  .00000000  00000-0  00000-0 0 24323
2 79918 024.6976 335.1594 7082934 168.5917 059.8687 00.95997204    08

# Worst residual: 157.45 km
# MJD 60542.000000 (2024 Aug 20  0:00)
A118n8v = A1188rT = A1188rU
1 79918U 24999ZZG 24233.49919926  .00000000  00000-0  00000-0 0 24324
2 79918 024.6060 335.1648 7081806 169.2530 043.5996 00.96045269    07

# Worst residual: 135.56 km
# MJD 60543.000000 (2024 Aug 21  0:00)
A118n8v = A1188rT = A1188rU
1 79918U 24999ZZG 24234.49919926  .00000000  00000-0  00000-0 0 24325
2 79918 024.5104 335.1477 7080031 169.9218 027.3418 00.96091974    07

# Worst residual: 105.63 km
# MJD 60544.000000 (2024 Aug 22  0:00)
A118n8v = A1188rT = A1188rU
1 79918U 24999ZZG 24235.49919926  .00000000  00000-0  00000-0 0 24326
2 79918 024.4175 335.1390 7077928 170.5962 011.0510 00.96092422    05

# Worst residual: 120.78 km
# MJD 60545.000000 (2024 Aug 23  0:00)
A118n8v = A1188rT = A1188rU
1 79918U 24999ZZG 24236.49919926  .00000000  00000-0  00000-0 0 24327
2 79918 024.3249 335.1296 7077029 171.2534 354.8029 00.96060699    00

# Worst residual: 135.98 km
# MJD 60546.000000 (2024 Aug 24  0:00)
A118n8v = A1188rT = A1188rU
1 79918U 24999ZZG 24237.49919926  .00000000  00000-0  00000-0 0 24328
2 79918 024.2369 335.1222 7075275 171.9032 338.5616 00.96024968    02

# Worst residual: 143.96 km
# MJD 60547.000000 (2024 Aug 25  0:00)
A118n8v = A1188rT = A1188rU
1 79918U 24999ZZG 24238.49919926  .00000000  00000-0  00000-0 0 24329
2 79918 024.1338 335.1032 7077015 172.5597 322.3555 00.95934543    04

# Worst residual: 144.25 km
# MJD 60548.000000 (2024 Aug 26  0:00)
A118n8v = A1188rT = A1188rU
1 79918U 24999ZZG 24239.49919926  .00000000  00000-0  00000-0 0 24320
2 79918 024.0526 335.0940 7073507 173.1931 306.1812 00.95862541    04
